{"fetched_at":"2026-07-11T09:24:30.225Z","source":"https://celestrak.org/NORAD/elements/gp.php?NAME=NUSAT&FORMAT=JSON","constellation":"satellogic","records":[{"OBJECT_NAME":"NUSAT-26 (M SOMERVILLE)","OBJECT_ID":"2022-033AD","EPOCH":"2026-07-11T04:15:17.016192","CLASSIFICATION_TYPE":"U","MEAN_MOTION":15.43145691,"ECCENTRICITY":0.000683,"INCLINATION":97.2344,"RA_OF_ASC_NODE":271.0841,"ARG_OF_PERICENTER":149.5912,"MEAN_ANOMALY":210.5733,"EPHEMERIS_TYPE":0,"NORAD_CAT_ID":52184,"ELEMENT_SET_NO":999,"REV_AT_EPOCH":10840,"BSTAR":0.00026561,"MEAN_MOTION_DOT":0.0001169,"MEAN_MOTION_DDOT":0},{"OBJECT_NAME":"NUSAT-33 (ALBANIA-2)","OBJECT_ID":"2023-001AQ","EPOCH":"2026-07-11T04:16:39.751968","CLASSIFICATION_TYPE":"U","MEAN_MOTION":15.28220615,"ECCENTRICITY":0.0005146,"INCLINATION":97.3064,"RA_OF_ASC_NODE":252.625,"ARG_OF_PERICENTER":332.9168,"MEAN_ANOMALY":27.1803,"EPHEMERIS_TYPE":0,"NORAD_CAT_ID":55047,"ELEMENT_SET_NO":999,"REV_AT_EPOCH":19597,"BSTAR":0.00020527,"MEAN_MOTION_DOT":0.00005573,"MEAN_MOTION_DDOT":0},{"OBJECT_NAME":"NUSAT-35 (WILLIAMINA)","OBJECT_ID":"2023-001AR","EPOCH":"2026-07-11T03:31:51.697632","CLASSIFICATION_TYPE":"U","MEAN_MOTION":15.35756104,"ECCENTRICITY":0.0010942,"INCLINATION":97.1845,"RA_OF_ASC_NODE":244.2948,"ARG_OF_PERICENTER":24.5239,"MEAN_ANOMALY":335.6524,"EPHEMERIS_TYPE":0,"NORAD_CAT_ID":55048,"ELEMENT_SET_NO":999,"REV_AT_EPOCH":19608,"BSTAR":0.00024986,"MEAN_MOTION_DOT":0.00008629,"MEAN_MOTION_DDOT":0},{"OBJECT_NAME":"NUSAT-39 (TIKVAH ALPER)","OBJECT_ID":"2023-054Z","EPOCH":"2026-07-11T04:02:08.816640","CLASSIFICATION_TYPE":"U","MEAN_MOTION":15.47874188,"ECCENTRICITY":0.0002489,"INCLINATION":97.3101,"RA_OF_ASC_NODE":102.1588,"ARG_OF_PERICENTER":345.6633,"MEAN_ANOMALY":14.4547,"EPHEMERIS_TYPE":0,"NORAD_CAT_ID":56201,"ELEMENT_SET_NO":999,"REV_AT_EPOCH":18216,"BSTAR":0.00037016,"MEAN_MOTION_DOT":0.00019191,"MEAN_MOTION_DDOT":0},{"OBJECT_NAME":"NUSAT-38 (MARIA AGNESI)","OBJECT_ID":"2023-054AA","EPOCH":"2026-07-11T04:06:31.159008","CLASSIFICATION_TYPE":"U","MEAN_MOTION":15.51026666,"ECCENTRICITY":0.0009408,"INCLINATION":97.3039,"RA_OF_ASC_NODE":102.8815,"ARG_OF_PERICENTER":344.2548,"MEAN_ANOMALY":15.841,"EPHEMERIS_TYPE":0,"NORAD_CAT_ID":56202,"ELEMENT_SET_NO":999,"REV_AT_EPOCH":18222,"BSTAR":0.00038072,"MEAN_MOTION_DOT":0.00022096,"MEAN_MOTION_DDOT":0},{"OBJECT_NAME":"NUSAT-37 (JOAN CLARKE)","OBJECT_ID":"2023-054AB","EPOCH":"2026-07-11T04:28:52.042080","CLASSIFICATION_TYPE":"U","MEAN_MOTION":15.59348829,"ECCENTRICITY":0.0007339,"INCLINATION":97.2611,"RA_OF_ASC_NODE":99.7498,"ARG_OF_PERICENTER":155.3151,"MEAN_ANOMALY":204.8458,"EPHEMERIS_TYPE":0,"NORAD_CAT_ID":56203,"ELEMENT_SET_NO":999,"REV_AT_EPOCH":18238,"BSTAR":0.00040859,"MEAN_MOTION_DOT":0.00032204,"MEAN_MOTION_DDOT":0},{"OBJECT_NAME":"NUSAT-40 (C SHOEMAKER)","OBJECT_ID":"2023-084M","EPOCH":"2026-07-11T04:12:42.568416","CLASSIFICATION_TYPE":"U","MEAN_MOTION":15.81585331,"ECCENTRICITY":0.0004321,"INCLINATION":97.4853,"RA_OF_ASC_NODE":340.6836,"ARG_OF_PERICENTER":194.6922,"MEAN_ANOMALY":165.4221,"EPHEMERIS_TYPE":0,"NORAD_CAT_ID":56943,"ELEMENT_SET_NO":999,"REV_AT_EPOCH":17259,"BSTAR":0.00047919,"MEAN_MOTION_DOT":0.0009604,"MEAN_MOTION_DDOT":0},{"OBJECT_NAME":"NUSAT-41 (C PAYNE-G)","OBJECT_ID":"2023-084N","EPOCH":"2026-07-11T04:38:18.176352","CLASSIFICATION_TYPE":"U","MEAN_MOTION":15.30100158,"ECCENTRICITY":0.000616,"INCLINATION":97.5537,"RA_OF_ASC_NODE":329.2948,"ARG_OF_PERICENTER":226.7601,"MEAN_ANOMALY":133.3126,"EPHEMERIS_TYPE":0,"NORAD_CAT_ID":56944,"ELEMENT_SET_NO":999,"REV_AT_EPOCH":17145,"BSTAR":0.00024189,"MEAN_MOTION_DOT":0.00006971,"MEAN_MOTION_DDOT":0},{"OBJECT_NAME":"NUSAT-42 (M WONENBURGER)","OBJECT_ID":"2023-084AL","EPOCH":"2026-07-11T04:19:53.823648","CLASSIFICATION_TYPE":"U","MEAN_MOTION":15.46395701,"ECCENTRICITY":0.000654,"INCLINATION":97.5737,"RA_OF_ASC_NODE":337.3177,"ARG_OF_PERICENTER":158.9216,"MEAN_ANOMALY":201.2304,"EPHEMERIS_TYPE":0,"NORAD_CAT_ID":56966,"ELEMENT_SET_NO":999,"REV_AT_EPOCH":17178,"BSTAR":0.00029751,"MEAN_MOTION_DOT":0.00014635,"MEAN_MOTION_DDOT":0},{"OBJECT_NAME":"NUSAT-44 (MARIA MITCHELL)","OBJECT_ID":"2024-043AA","EPOCH":"2026-07-11T05:07:42.674304","CLASSIFICATION_TYPE":"U","MEAN_MOTION":15.2979828,"ECCENTRICITY":0.0006259,"INCLINATION":97.5469,"RA_OF_ASC_NODE":332.8446,"ARG_OF_PERICENTER":143.0314,"MEAN_ANOMALY":217.1358,"EPHEMERIS_TYPE":0,"NORAD_CAT_ID":59122,"ELEMENT_SET_NO":999,"REV_AT_EPOCH":13094,"BSTAR":0.00022702,"MEAN_MOTION_DOT":0.00006476,"MEAN_MOTION_DDOT":0},{"OBJECT_NAME":"NUSAT-50 (NANCY ROMAN)","OBJECT_ID":"2024-149AB","EPOCH":"2026-07-11T04:04:34.975200","CLASSIFICATION_TYPE":"U","MEAN_MOTION":15.30273983,"ECCENTRICITY":0.0004805,"INCLINATION":97.3787,"RA_OF_ASC_NODE":273.2637,"ARG_OF_PERICENTER":111.3057,"MEAN_ANOMALY":248.8697,"EPHEMERIS_TYPE":0,"NORAD_CAT_ID":60493,"ELEMENT_SET_NO":999,"REV_AT_EPOCH":10579,"BSTAR":0.00020166,"MEAN_MOTION_DOT":0.00005831,"MEAN_MOTION_DDOT":0},{"OBJECT_NAME":"NUSAT-48 (HENRIETTA LEAVITT)","OBJECT_ID":"2024-149AG","EPOCH":"2026-07-10T04:16:07.925664","CLASSIFICATION_TYPE":"U","MEAN_MOTION":15.30220707,"ECCENTRICITY":0.00043336,"INCLINATION":97.3914,"RA_OF_ASC_NODE":272.5613,"ARG_OF_PERICENTER":173.6918,"MEAN_ANOMALY":186.4378,"EPHEMERIS_TYPE":0,"NORAD_CAT_ID":60498,"ELEMENT_SET_NO":999,"REV_AT_EPOCH":10565,"BSTAR":0.00023360515,"MEAN_MOTION_DOT":0.00006755,"MEAN_MOTION_DDOT":0},{"OBJECT_NAME":"NUSAT-49 (KLARA DAN VON NEUMANN)","OBJECT_ID":"2024-149AJ","EPOCH":"2026-07-11T04:49:01.923744","CLASSIFICATION_TYPE":"U","MEAN_MOTION":15.30340024,"ECCENTRICITY":0.0002083,"INCLINATION":97.378,"RA_OF_ASC_NODE":273.3266,"ARG_OF_PERICENTER":174.2786,"MEAN_ANOMALY":185.8478,"EPHEMERIS_TYPE":0,"NORAD_CAT_ID":60500,"ELEMENT_SET_NO":999,"REV_AT_EPOCH":10580,"BSTAR":0.00017563,"MEAN_MOTION_DOT":0.00005077,"MEAN_MOTION_DDOT":0},{"OBJECT_NAME":"NUSAT-52","OBJECT_ID":"2025-276AC","EPOCH":"2026-07-10T10:54:01.482912","CLASSIFICATION_TYPE":"U","MEAN_MOTION":15.20008854,"ECCENTRICITY":0.00017414,"INCLINATION":97.4202,"RA_OF_ASC_NODE":264.6176,"ARG_OF_PERICENTER":312.1357,"MEAN_ANOMALY":47.973,"EPHEMERIS_TYPE":0,"NORAD_CAT_ID":66692,"ELEMENT_SET_NO":999,"REV_AT_EPOCH":3395,"BSTAR":0.00015670293,"MEAN_MOTION_DOT":0.00003307,"MEAN_MOTION_DDOT":0},{"OBJECT_NAME":"NUSAT-51 (YVONNE BRILL)","OBJECT_ID":"2025-276CC","EPOCH":"2026-07-11T04:20:28.818240","CLASSIFICATION_TYPE":"U","MEAN_MOTION":15.20537288,"ECCENTRICITY":0.000159,"INCLINATION":97.4207,"RA_OF_ASC_NODE":265.4719,"ARG_OF_PERICENTER":262.2075,"MEAN_ANOMALY":97.8979,"EPHEMERIS_TYPE":0,"NORAD_CAT_ID":66740,"ELEMENT_SET_NO":999,"REV_AT_EPOCH":3407,"BSTAR":0.00016135,"MEAN_MOTION_DOT":0.00003461,"MEAN_MOTION_DDOT":0}]}
