NUSAT-26 (M SOMERVILLE) 
1 52184U 22033AD  26192.17728028  .00011690  00000+0  26561-3 0  9994
2 52184  97.2344 271.0841 0006830 149.5912 210.5733 15.43145691108405
NUSAT-33 (ALBANIA-2)    
1 55047U 23001AQ  26192.17823787  .00005573  00000+0  20527-3 0  9998
2 55047  97.3064 252.6250 0005146 332.9168  27.1803 15.28220615195976
NUSAT-35 (WILLIAMINA)   
1 55048U 23001AR  26192.14712613  .00008629  00000+0  24986-3 0  9999
2 55048  97.1845 244.2948 0010942  24.5239 335.6524 15.35756104196081
NUSAT-39 (TIKVAH ALPER) 
1 56201U 23054Z   26192.16815760  .00019191  00000+0  37016-3 0  9992
2 56201  97.3101 102.1588 0002489 345.6633  14.4547 15.47874188182161
NUSAT-38 (MARIA AGNESI) 
1 56202U 23054AA  26192.17119397  .00022096  00000+0  38072-3 0  9998
2 56202  97.3039 102.8815 0009408 344.2548  15.8410 15.51026666182226
NUSAT-37 (JOAN CLARKE)  
1 56203U 23054AB  26192.18671345  .00032204  00000+0  40859-3 0  9994
2 56203  97.2611  99.7498 0007339 155.3151 204.8458 15.59348829182380
NUSAT-40 (C SHOEMAKER)  
1 56943U 23084M   26192.17549269  .00096040  00000+0  47919-3 0  9998
2 56943  97.4853 340.6836 0004321 194.6922 165.4221 15.81585331172593
NUSAT-41 (C PAYNE-G)    
1 56944U 23084N   26192.19326593  .00006971  00000+0  24189-3 0  9992
2 56944  97.5537 329.2948 0006160 226.7601 133.3126 15.30100158171451
NUSAT-42 (M WONENBURGER)
1 56966U 23084AL  26192.18048407  .00014635  00000+0  29751-3 0  9996
2 56966  97.5737 337.3177 0006540 158.9216 201.2304 15.46395701171787
NUSAT-44 (MARIA MITCHE*)
1 59122U 24043AA  26192.21368836  .00006476  00000+0  22702-3 0  9997
2 59122  97.5469 332.8446 0006259 143.0314 217.1358 15.29798280130944
NUSAT-50 (NANCY ROMAN)  
1 60493U 24149AB  26192.16984925  .00005831  00000+0  20166-3 0  9990
2 60493  97.3787 273.2637 0004805 111.3057 248.8697 15.30273983105797
NUSAT-48 (HENRIETTA LE*)
1 60498U 24149AG  26191.17786951  .00006755  00000+0  23361-3 0  9990
2 60498  97.3914 272.5613 0004333 173.6918 186.4378 15.30220707105657
NUSAT-49 (KLARA DAN VO*)
1 60500U 24149AJ  26192.20071671  .00005077  00000+0  17563-3 0  9998
2 60500  97.3780 273.3266 0002083 174.2786 185.8478 15.30340024105801
NUSAT-52                
1 66692U 25276AC  26191.45418383  .00003307  00000+0  15670-3 0  9990
2 66692  97.4202 264.6176 0001741 312.1357  47.9730 15.20008854 33955
NUSAT-51 (YVONNE BRILL) 
1 66740U 25276CC  26192.18088910  .00003461  00000+0  16135-3 0  9992
2 66740  97.4207 265.4719 0001590 262.2075  97.8979 15.20537288 34071
